NORAD_CAT_ID,OBJECT_NAME,OBJECT_TYPE,EPOCH,MEAN_MOTION,ECCENTRICITY,INCLINATION,RA_OF_ASC_NODE,ARG_OF_PERICENTER,MEAN_ANOMALY,BSTAR,MEAN_MOTION_DOT,MEAN_MOTION_DDOT,TLE_LINE0,TLE_LINE1,TLE_LINE2,SEMIMAJOR_AXIS,PERIOD,APOGEE,PERIGEE,DECAYED
53601.0,STARLINK-4675,PAYLOAD,2022-12-08 23:27:19,15.08840241,0.0001395,53.2184,171.3395,71.5396,288.5748,8.618200000000001e-05,1.084e-05,0.0,0 STARLINK-4675,1 53601U 22104P   22342.97730803  .00001084  00000-0  86182-4 0  9996,2 53601  53.2184 171.3395 0001395  71.5396 288.5748 15.08840241 15773,6917.88,95.438,540.71,538.78,0.0
53601.0,STARLINK-4675,PAYLOAD,2022-12-09 12:10:24,15.08838209,9.87e-05,53.219,168.9609,53.9562,306.1521,4.6802e-05,4.57e-06,0.0,0 STARLINK-4675,1 53601U 22104P   22343.50722924  .00000457  00000-0  46802-4 0  9999,2 53601  53.2190 168.9609 0000987  53.9562 306.1521 15.08838209 16548,6917.886,95.438,540.434,539.068,0.0
53601.0,STARLINK-4675,PAYLOAD,2022-12-09 20:07:21,15.08833025,0.0001876,53.2194,167.4732,65.7386,294.3802,-5.5402e-05,-1.17e-05,0.0,0 STARLINK-4675,1 53601U 22104P   22343.83843986 -.00001170  00000-0 -55402-4 0  9998,2 53601  53.2194 167.4732 0001876  65.7386 294.3802 15.08833025 15906,6917.901999999999,95.438,541.065,538.469,0.0
53601.0,STARLINK-4675,PAYLOAD,2022-12-10 00:53:30,15.08831082,0.0001703,53.2189,166.5803,70.3166,289.801,-4.578e-05,-1.016e-05,0.0,0 STARLINK-4675,1 53601U 22104P   22344.03716086 -.00001016  00000-0 -45780-4 0  9998,2 53601  53.2189 166.5803 0001703  70.3166 289.8010 15.08831082 16627,6917.908,95.438,540.951,538.595,0.0
53601.0,STARLINK-4675,PAYLOAD,2022-12-10 18:22:45,15.08833515,0.0001588,53.2188,163.31,67.3187,292.7973,-4.3208e-06,-3.57e-06,0.0,0 STARLINK-4675,1 53601U 22104P   22344.76580016 -.00000357  00000-0 -43208-5 0  9991,2 53601  53.2188 163.3100 0001588  67.3187 292.7973 15.08833515 16737,6917.9,95.438,540.864,538.6669999999998,0.0
53601.0,STARLINK-4675,PAYLOAD,2022-12-10 21:33:31,15.08834077,0.0001591,53.2187,162.7153,67.516,292.6,1.3561000000000002e-06,-2.66e-06,0.0,0 STARLINK-4675,1 53601U 22104P   22344.89828033 -.00000266  00000-0  13561-5 0  9996,2 53601  53.2187 162.7153 0001591  67.5160 292.6000 15.08834077 16064,6917.898,95.438,540.864,538.663,0.0
53601.0,STARLINK-4675,PAYLOAD,2022-12-11 11:52:01,15.08800365,0.0001827,53.2184,160.0448,60.6415,299.476,0.00041045,6.243e-05,0.0,0 STARLINK-4675,1 53601U 22104P   22345.49445651  .00006243  00000-0  41045-3 0  9990,2 53601  53.2184 160.0448 0001827  60.6415 299.4760 15.08800365 16159,6918.002,95.44,541.13,538.6030000000002,0.0
53601.0,STARLINK-4675,PAYLOAD,2022-12-11 18:13:32,15.08834046,0.0001511,53.219,158.8508,64.0059,296.1089,0.00011545,1.55e-05,0.0,0 STARLINK-4675,1 53601U 22104P   22345.75939981  .00001550  00000-0  11545-3 0  9991,2 53601  53.2190 158.8508 0001511  64.0059 296.1089 15.08834046 16195,6917.899,95.438,540.809,538.7180000000002,0.0
53601.0,STARLINK-4675,PAYLOAD,2022-12-11 21:24:18,15.08835653,0.000171,53.219,158.256,61.2491,298.8673,0.00012241,1.66e-05,0.0,0 STARLINK-4675,1 53601U 22104P   22345.89187964  .00001660  00000-0  12241-3 0  9998,2 53601  53.2190 158.2560 0001710  61.2491 298.8673 15.08835653 16909,6917.894,95.438,540.942,538.576,0.0
53601.0,STARLINK-4675,PAYLOAD,2022-12-11 22:59:41,15.08835484,0.0001613,53.2187,157.9581,63.4862,296.6296,0.00011351,1.519e-05,0.0,0 STARLINK-4675,1 53601U 22104P   22345.95811996  .00001519  00000-0  11351-3 0  9998,2 53601  53.2187 157.9581 0001613  63.4862 296.6296 15.08835484 16912,6917.894,95.438,540.875,538.643,0.0
53601.0,STARLINK-4675,PAYLOAD,2022-12-12 22:50:28,15.08843392,0.0001701,53.218,153.498,60.5079,299.6083,9.9685e-05,1.299e-05,0.0,0 STARLINK-4675,1 53601U 22104P   22346.95171542  .00001299  00000-0  99685-4 0  9997,2 53601  53.2180 153.4980 0001701  60.5079 299.6083 15.08843392 16379,6917.87,95.437,540.9119999999998,538.558,0.0
53601.0,STARLINK-4675,PAYLOAD,2022-12-13 11:33:33,15.0883747,0.0001657,53.2179,151.119,64.0951,296.0211,-6.0483e-06,-3.84e-06,0.0,0 STARLINK-4675,1 53601U 22104P   22347.48164249 -.00000384  00000-0 -60483-5 0  9993,2 53601  53.2179 151.1190 0001657  64.0951 296.0211 15.08837470 17143,6917.888000000001,95.438,540.899,538.607,0.0
53601.0,STARLINK-4675,PAYLOAD,2022-12-13 19:30:29,15.0884059,0.0001699,53.2174,149.63299999999995,57.2147,302.9009,2.1035e-05,4.7e-07,0.0,0 STARLINK-4675,1 53601U 22104P   22347.81283936  .00000047  00000-0  21035-4 0  9998,2 53601  53.2174 149.6330 0001699  57.2147 302.9009 15.08840590 17197,6917.879,95.438,540.919,538.568,0.0
53601.0,STARLINK-4675,PAYLOAD,2022-12-14 03:27:26,15.08828271,0.0001954,53.2201,148.1463,53.3154,306.8017,-0.00010066,-1.889e-05,0.0,0 STARLINK-4675,1 53601U 22104P   22348.14405121 -.00001889  00000-0 -10066-3 0  9995,2 53601  53.2201 148.1463 0001954  53.3154 306.8017 15.08828271 16551,6917.916,95.438,541.133,538.429,0.0
53601.0,STARLINK-4675,PAYLOAD,2022-12-14 11:24:21,15.08829874,0.0001774,53.214,146.6582,62.9337,297.1836,-0.00011632,-2.138e-05,0.0,0 STARLINK-4675,1 53601U 22104P   22348.47525322 -.00002138  00000-0 -11632-3 0  9995,2 53601  53.2140 146.6582 0001774  62.9337 297.1836 15.08829874 17290,6917.911,95.438,541.004,538.549,0.0
53601.0,STARLINK-4675,PAYLOAD,2022-12-14 17:45:54,15.08827511,0.0001503,53.2191,145.4705,54.2485,305.8646,1.5148e-05,-4.7e-07,0.0,0 STARLINK-4675,1 53601U 22104P   22348.74020963 -.00000047  00000-0  15148-4 0  9999,2 53601  53.2191 145.4705 0001503  54.2485 305.8646 15.08827511 17335,6917.919,95.438,540.823,538.744,0.0
53601.0,STARLINK-4675,PAYLOAD,2022-12-15 11:15:08,15.08836345,0.0001573,53.2184,142.19899999999996,55.0271,305.0869,8.2397e-05,1.023e-05,0.0,0 STARLINK-4675,1 53601U 22104P   22349.46884636  .00001023  00000-0  82397-4 0  9998,2 53601  53.2184 142.1990 0001573  55.0271 305.0869 15.08836345 16755,6917.892,95.438,540.845,538.668,0.0
53601.0,STARLINK-4675,PAYLOAD,2022-12-15 19:12:03,15.08846324,0.0001534,53.2185,140.7121,54.0816,306.0318,0.00011148,1.487e-05,0.0,0 STARLINK-4675,1 53601U 22104P   22349.80003993  .00001487  00000-0  11148-3 0  9994,2 53601  53.2185 140.7121 0001534  54.0816 306.0318 15.08846324 17497,6917.861,95.437,540.7869999999998,538.665,0.0
53601.0,STARLINK-4675,PAYLOAD,2022-12-15 20:47:26,15.08847185,0.0001561999999999,53.2182,140.4145,57.5595,302.5548,0.00012105,1.639e-05,0.0,0 STARLINK-4675,1 53601U 22104P   22349.86627914  .00001639  00000-0  12105-3 0  9998,2 53601  53.2182 140.4145 0001562  57.5595 302.5548 15.08847185 16817,6917.858,95.437,540.804,538.643,0.0
53601.0,STARLINK-4675,PAYLOAD,2022-12-16 11:05:55,15.08840203,0.0001348,53.2172,137.7375,54.6566,305.4552,0.00020826,3.028e-05,0.0,0 STARLINK-4675,1 53601U 22104P   22350.46244231  .00003028  00000-0  20826-3 0  9996,2 53601  53.2172 137.7375 0001348  54.6566 305.4552 15.08840203 16909,6917.88,95.438,540.677,538.812,0.0
53601.0,STARLINK-4675,PAYLOAD,2022-12-16 17:27:28,15.08820699,0.0001515,53.2173,136.5487,56.4839,303.6297,-0.00018088,-3.164e-05,0.0,0 STARLINK-4675,1 53601U 22104P   22350.72741520 -.00003164  00000-0 -18088-3 0  9998,2 53601  53.2173 136.5487 0001515  56.4839 303.6297 15.08820699 16947,6917.939,95.439,540.852,538.756,0.0
53601.0,STARLINK-4675,PAYLOAD,2022-12-16 19:02:51,15.08821813,0.0001548,53.2172,136.2513,54.8726,305.2411,-0.00015949,-2.824e-05,0.0,0 STARLINK-4675,1 53601U 22104P   22350.79365540 -.00002824  00000-0 -15949-3 0  9994,2 53601  53.2172 136.2513 0001548  54.8726 305.2411 15.08821813 17649,6917.936,95.439,540.872,538.73,0.0
53601.0,STARLINK-4675,PAYLOAD,2022-12-17 02:59:47,15.08827293,0.0001519,53.2173,134.7647,56.234,303.8796,-8.7821e-05,-1.685e-05,0.0,0 STARLINK-4675,1 53601U 22104P   22351.12485543 -.00001685  00000-0 -87821-4 0  9991,2 53601  53.2173 134.7647 0001519  56.2340 303.8796 15.08827293 17005,6917.919,95.438,540.835,538.7330000000002,0.0
53601.0,STARLINK-4675,PAYLOAD,2022-12-17 09:21:20,15.08830642,0.0001509,53.2173,133.5748,55.8712,304.2423,-0.0001051,-1.96e-05,0.0,0 STARLINK-4675,1 53601U 22104P   22351.38981584 -.00001960  00000-0 -10510-3 0  9991,2 53601  53.2173 133.5748 0001509  55.8712 304.2423 15.08830642 17735,6917.909000000002,95.438,540.818,538.73,0.0
53601.0,STARLINK-4675,PAYLOAD,2022-12-17 17:18:15,15.088324900000002,0.0001561999999999,53.2171,132.0888,56.1497,303.9644,0.00017506,2.499e-05,0.0,0 STARLINK-4675,1 53601U 22104P   22351.72101661  .00002499  00000-0  17506-3 0  9997,2 53601  53.2171 132.0888 0001562  56.1497 303.9644 15.08832490 17784,6917.903,95.438,540.849,538.688,0.0
53601.0,STARLINK-4675,PAYLOAD,2022-12-18 02:50:34,15.08835468,0.00016,53.217,130.3045,55.7709,304.3434,0.00040856,6.219e-05,0.0,0 STARLINK-4675,1 53601U 22104P   22352.11846035  .00006219  00000-0  40856-3 0  9990,2 53601  53.2170 130.3045 0001600  55.7709 304.3434 15.08835468 17154,6917.894,95.438,540.866,538.6519999999998,0.0
53601.0,STARLINK-4675,PAYLOAD,2022-12-18 17:09:03,15.08831151,0.0001617,53.2175,127.629,56.6027,303.512,0.00030888,4.63e-05,0.0,0 STARLINK-4675,1 53601U 22104P   22352.71462846  .00004630  00000-0  30888-3 0  9999,2 53601  53.2175 127.6290 0001617  56.6027 303.5120 15.08831151 17249,6917.906999999997,95.438,540.891,538.654,0.0
53601.0,STARLINK-4675,PAYLOAD,2022-12-18 20:19:50,15.08833275,0.0001602,53.2173,127.0338,56.3775,303.737,0.00031649,4.752e-05,0.0,0 STARLINK-4675,1 53601U 22104P   22352.84710855  .00004752  00000-0  31649-3 0  9990,2 53601  53.2173 127.0338 0001602  56.3775 303.7370 15.08833275 17951,6917.901,95.438,540.874,538.658,0.0
53601.0,STARLINK-4675,PAYLOAD,2022-12-19 09:02:54,15.08851674,0.0001639,53.2173,124.6549,55.1612,304.9534,0.00060784,9.402e-05,0.0,0 STARLINK-4675,1 53601U 22104P   22353.37702473  .00009402  00000-0  60784-3 0  9995,2 53601  53.2173 124.6549 0001639  55.1612 304.9534 15.08851674 17346,6917.845,95.437,540.844,538.576,0.0
